{
  "type": "FeatureCollection",
  "features": [
    {
      "type": "Feature",
      "properties": {
        "norad_id": 33844,
        "name": "COSMOS 2251 DEB",
        "group": "cosmos-2251-debris",
        "lat": 73.4869825067192,
        "lon": 143.30700126836163,
        "alt_km": 745.0009719057471,
        "timestamp": "2025-12-20T22:39:11.017913+00:00",
        "meta_object_name": "COSMOS 2251 DEB",
        "meta_object_id": "1993-036CM",
        "meta_epoch": "2025-12-20T14:23:09.329856",
        "meta_mean_motion": 14.33730549,
        "meta_eccentricity": 0.00471004,
        "meta_inclination": 74.0667,
        "meta_ra_of_asc_node": 38.4296,
        "meta_arg_of_pericenter": 57.8225,
        "meta_mean_anomaly": 58.9899,
        "meta_ephemeris_type": 0,
        "meta_classification_type": "U",
        "meta_norad_cat_id": 33844,
        "meta_element_set_no": 999,
        "meta_rev_at_epoch": 87838,
        "meta_bstar": 0.00024495943,
        "meta_mean_motion_dot": 6.63e-06,
        "meta_mean_motion_ddot": 0,
        "tle_line1": "1 33844U 93036CM  25354.59941354  .00000663  00000+0  24496-3 0  9994",
        "tle_line2": "2 33844  74.0667  38.4296 0047100  57.8225  58.9899 14.33730549878388"
      },
      "geometry": {
        "type": "Point",
        "coordinates": [
          143.30700126836163,
          73.4869825067192
        ]
      }
    },
    {
      "type": "Feature",
      "properties": {
        "norad_id": 33848,
        "name": "COSMOS 2251 DEB",
        "group": "cosmos-2251-debris",
        "lat": -37.42567967291136,
        "lon": 175.03508337610538,
        "alt_km": 780.5544819154766,
        "timestamp": "2025-12-20T22:39:11.017922+00:00",
        "meta_object_name": "COSMOS 2251 DEB",
        "meta_object_id": "1993-036CR",
        "meta_epoch": "2025-12-20T10:44:50.295840",
        "meta_mean_motion": 14.44109372,
        "meta_eccentricity": 0.00415952,
        "meta_inclination": 74.0315,
        "meta_ra_of_asc_node": 343.3001,
        "meta_arg_of_pericenter": 36.7793,
        "meta_mean_anomaly": 124.4232,
        "meta_ephemeris_type": 0,
        "meta_classification_type": "U",
        "meta_norad_cat_id": 33848,
        "meta_element_set_no": 999,
        "meta_rev_at_epoch": 87942,
        "meta_bstar": 0.00075494376,
        "meta_mean_motion_dot": 2.588e-05,
        "meta_mean_motion_ddot": 0,
        "tle_line1": "1 33848U 93036CR  25354.44780435  .00002588  00000+0  75494-3 0  9995",
        "tle_line2": "2 33848  74.0315 343.3001 0041595  36.7793 124.4232 14.44109372879424"
      },
      "geometry": {
        "type": "Point",
        "coordinates": [
          175.03508337610538,
          -37.42567967291136
        ]
      }
    },
    {
      "type": "Feature",
      "properties": {
        "norad_id": 33892,
        "name": "COSMOS 2251 DEB",
        "group": "cosmos-2251-debris",
        "lat": -66.54855965352708,
        "lon": -50.83894534482158,
        "alt_km": 878.6511074137989,
        "timestamp": "2025-12-20T22:39:11.017932+00:00",
        "meta_object_name": "COSMOS 2251 DEB",
        "meta_object_id": "1993-036CV",
        "meta_epoch": "2025-12-20T00:22:08.893344",
        "meta_mean_motion": 14.23361225,
        "meta_eccentricity": 0.01124489,
        "meta_inclination": 73.8027,
        "meta_ra_of_asc_node": 88.7851,
        "meta_arg_of_pericenter": 118.6054,
        "meta_mean_anomaly": 57.4187,
        "meta_ephemeris_type": 0,
        "meta_classification_type": "U",
        "meta_norad_cat_id": 33892,
        "meta_element_set_no": 999,
        "meta_rev_at_epoch": 87058,
        "meta_bstar": 0.0004540357,
        "meta_mean_motion_dot": 1.073e-05,
        "meta_mean_motion_ddot": 0,
        "tle_line1": "1 33892U 93036CV  25354.01538071  .00001073  00000+0  45404-3 0  9990",
        "tle_line2": "2 33892  73.8027  88.7851 0112448 118.6054  57.4187 14.23361225870585"
      },
      "geometry": {
        "type": "Point",
        "coordinates": [
          -50.83894534482158,
          -66.54855965352708
        ]
      }
    },
    {
      "type": "Feature",
      "properties": {
        "norad_id": 33894,
        "name": "COSMOS 2251 DEB",
        "group": "cosmos-2251-debris",
        "lat": 34.476824074175425,
        "lon": -12.076196986762497,
        "alt_km": 1509.2381726373915,
        "timestamp": "2025-12-20T22:39:11.017941+00:00",
        "meta_object_name": "COSMOS 2251 DEB",
        "meta_object_id": "1993-036CX",
        "meta_epoch": "2025-12-19T22:50:18.443904",
        "meta_mean_motion": 13.21320525,
        "meta_eccentricity": 0.05791531,
        "meta_inclination": 73.767,
        "meta_ra_of_asc_node": 337.9187,
        "meta_arg_of_pericenter": 256.3901,
        "meta_mean_anomaly": 97.2081,
        "meta_ephemeris_type": 0,
        "meta_classification_type": "U",
        "meta_norad_cat_id": 33894,
        "meta_element_set_no": 999,
        "meta_rev_at_epoch": 80803,
        "meta_bstar": 0.00109059,
        "meta_mean_motion_dot": 1.062e-05,
        "meta_mean_motion_ddot": 0,
        "tle_line1": "1 33894U 93036CX  25353.95160236  .00001062  00000+0  10906-2 0  9994",
        "tle_line2": "2 33894  73.7670 337.9187 0579153 256.3901  97.2081 13.21320525808033"
      },
      "geometry": {
        "type": "Point",
        "coordinates": [
          -12.076196986762497,
          34.476824074175425
        ]
      }
    },
    {
      "type": "Feature",
      "properties": {
        "norad_id": 33896,
        "name": "COSMOS 2251 DEB",
        "group": "cosmos-2251-debris",
        "lat": -12.376687863254025,
        "lon": -34.54559829089359,
        "alt_km": 882.078908192535,
        "timestamp": "2025-12-20T22:39:11.017950+00:00",
        "meta_object_name": "COSMOS 2251 DEB",
        "meta_object_id": "1993-036CZ",
        "meta_epoch": "2025-12-20T11:51:06.518016",
        "meta_mean_motion": 14.19054988,
        "meta_eccentricity": 0.01268373,
        "meta_inclination": 73.7663,
        "meta_ra_of_asc_node": 142.6056,
        "meta_arg_of_pericenter": 317.0632,
        "meta_mean_anomaly": 98.6996,
        "meta_ephemeris_type": 0,
        "meta_classification_type": "U",
        "meta_norad_cat_id": 33896,
        "meta_element_set_no": 999,
        "meta_rev_at_epoch": 86850,
        "meta_bstar": 0.00031713259,
        "meta_mean_motion_dot": 6.9e-06,
        "meta_mean_motion_ddot": 0,
        "tle_line1": "1 33896U 93036CZ  25354.49382544  .00000690  00000+0  31713-3 0  9990",
        "tle_line2": "2 33896  73.7663 142.6056 0126837 317.0632  98.6996 14.19054988868509"
      },
      "geometry": {
        "type": "Point",
        "coordinates": [
          -34.54559829089359,
          -12.376687863254025
        ]
      }
    },
    {
      "type": "Feature",
      "properties": {
        "norad_id": 33899,
        "name": "COSMOS 2251 DEB",
        "group": "cosmos-2251-debris",
        "lat": 16.452987709103468,
        "lon": 74.90048713261588,
        "alt_km": 704.8490228535111,
        "timestamp": "2025-12-20T22:39:11.017959+00:00",
        "meta_object_name": "COSMOS 2251 DEB",
        "meta_object_id": "1993-036DC",
        "meta_epoch": "2025-12-20T04:37:37.423200",
        "meta_mean_motion": 14.61249146,
        "meta_eccentricity": 0.00562569,
        "meta_inclination": 74.0544,
        "meta_ra_of_asc_node": 71.4909,
        "meta_arg_of_pericenter": 132.0189,
        "meta_mean_anomaly": 256.3671,
        "meta_ephemeris_type": 0,
        "meta_classification_type": "U",
        "meta_norad_cat_id": 33899,
        "meta_element_set_no": 999,
        "meta_rev_at_epoch": 88948,
        "meta_bstar": 0.0005222702,
        "meta_mean_motion_dot": 2.604e-05,
        "meta_mean_motion_ddot": 0,
        "tle_line1": "1 33899U 93036DC  25354.19279425  .00002604  00000+0  52227-3 0  9993",
        "tle_line2": "2 33899  74.0544  71.4909 0056256 132.0189 256.3671 14.61249146889481"
      },
      "geometry": {
        "type": "Point",
        "coordinates": [
          74.90048713261588,
          16.452987709103468
        ]
      }
    },
    {
      "type": "Feature",
      "properties": {
        "norad_id": 33900,
        "name": "COSMOS 2251 DEB",
        "group": "cosmos-2251-debris",
        "lat": -30.150535964619927,
        "lon": -25.351210899129633,
        "alt_km": 735.8743414547826,
        "timestamp": "2025-12-20T22:39:11.017968+00:00",
        "meta_object_name": "COSMOS 2251 DEB",
        "meta_object_id": "1993-036DD",
        "meta_epoch": "2025-12-20T13:26:45.026304",
        "meta_mean_motion": 14.5837153,
        "meta_eccentricity": 0.00464912,
        "meta_inclination": 74.0182,
        "meta_ra_of_asc_node": 344.962,
        "meta_arg_of_pericenter": 134.7991,
        "meta_mean_anomaly": 340.6337,
        "meta_ephemeris_type": 0,
        "meta_classification_type": "U",
        "meta_norad_cat_id": 33900,
        "meta_element_set_no": 999,
        "meta_rev_at_epoch": 89150,
        "meta_bstar": 0.00025292614,
        "meta_mean_motion_dot": 1.159e-05,
        "meta_mean_motion_ddot": 0,
        "tle_line1": "1 33900U 93036DD  25354.56024336  .00001159  00000+0  25293-3 0  9993",
        "tle_line2": "2 33900  74.0182 344.9620 0046491 134.7991 340.6337 14.58371530891501"
      },
      "geometry": {
        "type": "Point",
        "coordinates": [
          -25.351210899129633,
          -30.150535964619927
        ]
      }
    }
  ]
}